ORBCOMM FM33 [-]        
1 25983U 99065D   24078.87803347  .00001299  00000+0  47731-3 0  9992
2 25983  45.0313 359.2137 0009418 296.8335 174.3241 14.37418428270499
ORBCOMM FM36 [-]        
1 25984U 99065E   24078.88781584  .00001229  00000+0  47414-3 0  9993
2 25984  45.0400  83.7624 0003122 207.9028 152.1653 14.35285255268941
ORBCOMM FM35 [+]        
1 25985U 99065F   24078.01013117  .00000979  00000+0  39068-3 0  9996
2 25985  45.0398  90.3894 0005150 277.4364  82.5899 14.34911283269214
ORBCOMM FM34 [-]        
1 25986U 99065G   24078.88431837  .00001092  00000+0  43004-3 0  9997
2 25986  45.0395  86.7907 0004878 243.2608 116.7740 14.34873127269459
ORBCOMM FM38 [-]        
1 33060U 08031A   24078.87803430  .00001983  00000+0  30659-3 0  9994
2 33060  48.4416 318.0158 0005802 247.8716 112.1582 14.77122844847343
ORBCOMM FM41 [-]        
1 33061U 08031B   24078.93226677  .00001976  00000+0  30751-3 0  9999
2 33061  48.4456 324.2567 0004968 234.9156 221.7514 14.76860378846855
ORBCOMM FM29 [-]        
1 33062U 08031C   24078.85367484  .00001820  00000+0  28599-3 0  9998
2 33062  48.4408 332.6586 0006685 233.2407 241.2412 14.76776073847141
ORBCOMM FM39 [-]        
1 33063U 08031D   24078.76298905  .00001771  00000+0  28512-3 0  9990
2 33063  48.4425 353.2162 0007493 209.4701 150.5791 14.75832083846447
